ONEWEB-0233             
1 48795U 21045AE  24317.86570536  .00000121  00000+0  28802-3 0  9998
2 48795  87.9104  14.9659 0001817  87.9526 272.1813 13.15549934167868
ONEWEB-0190             
1 48796U 21045AF  24317.92829939  .00000206  00000+0  51436-3 0  9993
2 48796  87.9109  14.9146 0002350  76.1172 284.0220 13.15550866167944
ONEWEB-0236             
1 48797U 21045AG  24317.86967150 -.00000007  00000+0 -51777-4 0  9995
2 48797  87.9115  14.9256 0001760  93.4850 266.6481 13.15550001167826
ONEWEB-0248             
1 48798U 21045AH  24317.88234909 -.00000042  00000+0 -14459-3 0  9991
2 48798  87.9101  14.9006 0001718  72.7779 287.3539 13.15550595167987
ONEWEB-0225             
1 48799U 21045AJ  24317.90453126  .00000044  00000+0  82681-4 0  9992
2 48799  87.9109  14.9154 0001963  86.3518 273.7837 13.15551025167994
ONEWEB-0215             
1 48800U 21045AK  24317.87442159 -.00000008  00000+0 -55993-4 0  9993
2 48800  87.9100  14.8869 0001938  73.5087 286.6256 13.15551735167863
ONEWEB-0216             
1 48801U 21045AL  24317.88393390 -.00000119  00000+0 -34905-3 0  9999
2 48801  87.9103  14.9279 0002099  98.9480 261.1888 13.15550468167872
ONEWEB-0239             
1 48802U 21045AM  24317.88868602 -.00000047  00000+0 -15847-3 0  9997
2 48802  87.9110  14.9158 0001790  68.3661 291.7660 13.15550912167912
